CCSDS_OMM_VERS = 2.0
CREATION_DATE  = 
ORIGINATOR     = 

OBJECT_NAME    = STARLINK-36426
OBJECT_ID      = 2026-014AA
CENTER_NAME    = EARTH
REF_FRAME      = TEME
TIME_SYSTEM    = UTC
MEAN_ELEMENT_THEORY = SGP/SGP4

EPOCH          = 2026-02-05T22:00:03.000096
MEAN_MOTION    = 15.80780571
ECCENTRICITY   = .00014158
INCLINATION    = 97.2748
RA_OF_ASC_NODE = 280.2573
ARG_OF_PERICENTER = 106.4583
MEAN_ANOMALY   = 135.7924

EPHEMERIS_TYPE = 0
CLASSIFICATION_TYPE = U
NORAD_CAT_ID   = 67560
ELEMENT_SET_NO = 999
REV_AT_EPOCH   = 242
BSTAR          = -.37323504E-3
MEAN_MOTION_DOT = -.70942E-3
MEAN_MOTION_DDOT = 0

CCSDS_OMM_VERS = 2.0
CREATION_DATE  = 
ORIGINATOR     = 

OBJECT_NAME    = STARLINK-36621
OBJECT_ID      = 2026-016A
CENTER_NAME    = EARTH
REF_FRAME      = TEME
TIME_SYSTEM    = UTC
MEAN_ELEMENT_THEORY = SGP/SGP4

EPOCH          = 2026-02-05T22:00:03.000096
MEAN_MOTION    = 15.80776881
ECCENTRICITY   = .0001426
INCLINATION    = 97.2800
RA_OF_ASC_NODE = 95.7157
ARG_OF_PERICENTER = 66.2367
MEAN_ANOMALY   = 298.4812

EPHEMERIS_TYPE = 0
CLASSIFICATION_TYPE = U
NORAD_CAT_ID   = 67561
ELEMENT_SET_NO = 999
REV_AT_EPOCH   = 294
BSTAR          = .39507036E-3
MEAN_MOTION_DOT = .7606E-3
MEAN_MOTION_DDOT = 0

CCSDS_OMM_VERS = 2.0
CREATION_DATE  = 
ORIGINATOR     = 

OBJECT_NAME    = STARLINK-36398
OBJECT_ID      = 2026-016B
CENTER_NAME    = EARTH
REF_FRAME      = TEME
TIME_SYSTEM    = UTC
MEAN_ELEMENT_THEORY = SGP/SGP4

EPOCH          = 2026-02-05T22:00:03.000096
MEAN_MOTION    = 15.80789585
ECCENTRICITY   = .00014517
INCLINATION    = 97.2801
RA_OF_ASC_NODE = 95.7188
ARG_OF_PERICENTER = 73.5961
MEAN_ANOMALY   = 297.8932

EPHEMERIS_TYPE = 0
CLASSIFICATION_TYPE = U
NORAD_CAT_ID   = 67562
ELEMENT_SET_NO = 999
REV_AT_EPOCH   = 292
BSTAR          = .20826729E-3
MEAN_MOTION_DOT = .39886E-3
MEAN_MOTION_DDOT = 0

CCSDS_OMM_VERS = 2.0
CREATION_DATE  = 
ORIGINATOR     = 

OBJECT_NAME    = STARLINK-36403
OBJECT_ID      = 2026-016C
CENTER_NAME    = EARTH
REF_FRAME      = TEME
TIME_SYSTEM    = UTC
MEAN_ELEMENT_THEORY = SGP/SGP4

EPOCH          = 2026-02-05T22:00:03.000096
MEAN_MOTION    = 15.80841713
ECCENTRICITY   = .00012279
INCLINATION    = 97.2807
RA_OF_ASC_NODE = 95.7219
ARG_OF_PERICENTER = 92.4250
MEAN_ANOMALY   = 284.9386

EPHEMERIS_TYPE = 0
CLASSIFICATION_TYPE = U
NORAD_CAT_ID   = 67563
ELEMENT_SET_NO = 999
REV_AT_EPOCH   = 304
BSTAR          = -.20349511E-3
MEAN_MOTION_DOT = -.38992E-3
MEAN_MOTION_DDOT = 0

CCSDS_OMM_VERS = 2.0
CREATION_DATE  = 
ORIGINATOR     = 

OBJECT_NAME    = STARLINK-36593
OBJECT_ID      = 2026-016D
CENTER_NAME    = EARTH
REF_FRAME      = TEME
TIME_SYSTEM    = UTC
MEAN_ELEMENT_THEORY = SGP/SGP4

EPOCH          = 2026-02-05T22:00:03.000096
MEAN_MOTION    = 15.81043787
ECCENTRICITY   = .00011788
INCLINATION    = 97.2805
RA_OF_ASC_NODE = 95.7242
ARG_OF_PERICENTER = 75.7053
MEAN_ANOMALY   = 308.5234

EPHEMERIS_TYPE = 0
CLASSIFICATION_TYPE = U
NORAD_CAT_ID   = 67564
ELEMENT_SET_NO = 999
REV_AT_EPOCH   = 288
BSTAR          = -.19300753E-2
MEAN_MOTION_DOT = -.358791E-2
MEAN_MOTION_DDOT = 0

CCSDS_OMM_VERS = 2.0
CREATION_DATE  = 
ORIGINATOR     = 

OBJECT_NAME    = STARLINK-35725
OBJECT_ID      = 2026-016E
CENTER_NAME    = EARTH
REF_FRAME      = TEME
TIME_SYSTEM    = UTC
MEAN_ELEMENT_THEORY = SGP/SGP4

EPOCH          = 2026-02-05T22:00:03.000096
MEAN_MOTION    = 15.81240180
ECCENTRICITY   = .00015413
INCLINATION    = 97.2802
RA_OF_ASC_NODE = 95.7262
ARG_OF_PERICENTER = 89.8641
MEAN_ANOMALY   = 299.4679

EPHEMERIS_TYPE = 0
CLASSIFICATION_TYPE = U
NORAD_CAT_ID   = 67565
ELEMENT_SET_NO = 999
REV_AT_EPOCH   = 293
BSTAR          = -.34133679E-2
MEAN_MOTION_DOT = -.621546E-2
MEAN_MOTION_DDOT = 0

CCSDS_OMM_VERS = 2.0
CREATION_DATE  = 
ORIGINATOR     = 

OBJECT_NAME    = STARLINK-36394
OBJECT_ID      = 2026-016F
CENTER_NAME    = EARTH
REF_FRAME      = TEME
TIME_SYSTEM    = UTC
MEAN_ELEMENT_THEORY = SGP/SGP4

EPOCH          = 2026-02-05T22:00:03.000096
MEAN_MOTION    = 15.82419712
ECCENTRICITY   = .00016981
INCLINATION    = 97.2798
RA_OF_ASC_NODE = 95.7344
ARG_OF_PERICENTER = 58.3784
MEAN_ANOMALY   = 352.3870

EPHEMERIS_TYPE = 0
CLASSIFICATION_TYPE = U
NORAD_CAT_ID   = 67566
ELEMENT_SET_NO = 999
REV_AT_EPOCH   = 304
BSTAR          = -.97198972E-2
MEAN_MOTION_DOT = -.1734829E-1
MEAN_MOTION_DDOT = 0

CCSDS_OMM_VERS = 2.0
CREATION_DATE  = 
ORIGINATOR     = 

OBJECT_NAME    = STARLINK-36352
OBJECT_ID      = 2026-016G
CENTER_NAME    = EARTH
REF_FRAME      = TEME
TIME_SYSTEM    = UTC
MEAN_ELEMENT_THEORY = SGP/SGP4

EPOCH          = 2026-02-05T22:00:03.000096
MEAN_MOTION    = 15.82062251
ECCENTRICITY   = .00012978
INCLINATION    = 97.2797
RA_OF_ASC_NODE = 95.7316
ARG_OF_PERICENTER = 68.2759
MEAN_ANOMALY   = 336.0860

EPHEMERIS_TYPE = 0
CLASSIFICATION_TYPE = U
NORAD_CAT_ID   = 67567
ELEMENT_SET_NO = 999
REV_AT_EPOCH   = 294
BSTAR          = -.84195941E-2
MEAN_MOTION_DOT = -.1508136E-1
MEAN_MOTION_DDOT = 0

CCSDS_OMM_VERS = 2.0
CREATION_DATE  = 
ORIGINATOR     = 

OBJECT_NAME    = STARLINK-36435
OBJECT_ID      = 2026-016H
CENTER_NAME    = EARTH
REF_FRAME      = TEME
TIME_SYSTEM    = UTC
MEAN_ELEMENT_THEORY = SGP/SGP4

EPOCH          = 2026-02-05T22:00:03.000096
MEAN_MOTION    = 15.82656070
ECCENTRICITY   = .00016302
INCLINATION    = 97.2800
RA_OF_ASC_NODE = 95.7370
ARG_OF_PERICENTER = 64.7475
MEAN_ANOMALY   = 351.6931

EPHEMERIS_TYPE = 0
CLASSIFICATION_TYPE = U
NORAD_CAT_ID   = 67568
ELEMENT_SET_NO = 999
REV_AT_EPOCH   = 294
BSTAR          = -.98207433E-2
MEAN_MOTION_DOT = -.1767023E-1
MEAN_MOTION_DDOT = 0

CCSDS_OMM_VERS = 2.0
CREATION_DATE  = 
ORIGINATOR     = 

OBJECT_NAME    = STARLINK-36575
OBJECT_ID      = 2026-016J
CENTER_NAME    = EARTH
REF_FRAME      = TEME
TIME_SYSTEM    = UTC
MEAN_ELEMENT_THEORY = SGP/SGP4

EPOCH          = 2026-02-05T22:00:03.000096
MEAN_MOTION    = 15.82922448
ECCENTRICITY   = .00018109
INCLINATION    = 97.2798
RA_OF_ASC_NODE = 95.7403
ARG_OF_PERICENTER = 72.4287
MEAN_ANOMALY   = 350.4343

EPHEMERIS_TYPE = 0
CLASSIFICATION_TYPE = U
NORAD_CAT_ID   = 67569
ELEMENT_SET_NO = 999
REV_AT_EPOCH   = 294
BSTAR          = -.98333484E-2
MEAN_MOTION_DOT = -.1827319E-1
MEAN_MOTION_DDOT = 0

CCSDS_OMM_VERS = 2.0
CREATION_DATE  = 
ORIGINATOR     = 

OBJECT_NAME    = STARLINK-36562
OBJECT_ID      = 2026-016K
CENTER_NAME    = EARTH
REF_FRAME      = TEME
TIME_SYSTEM    = UTC
MEAN_ELEMENT_THEORY = SGP/SGP4

EPOCH          = 2026-02-05T22:00:03.000096
MEAN_MOTION    = 15.83114349
ECCENTRICITY   = .00017645
INCLINATION    = 97.2794
RA_OF_ASC_NODE = 95.7415
ARG_OF_PERICENTER = 71.0907
MEAN_ANOMALY   = 356.5755

EPHEMERIS_TYPE = 0
CLASSIFICATION_TYPE = U
NORAD_CAT_ID   = 67570
ELEMENT_SET_NO = 999
REV_AT_EPOCH   = 294
BSTAR          = -.97395105E-2
MEAN_MOTION_DOT = -.1787536E-1
MEAN_MOTION_DDOT = 0

CCSDS_OMM_VERS = 2.0
CREATION_DATE  = 
ORIGINATOR     = 

OBJECT_NAME    = STARLINK-36578
OBJECT_ID      = 2026-016L
CENTER_NAME    = EARTH
REF_FRAME      = TEME
TIME_SYSTEM    = UTC
MEAN_ELEMENT_THEORY = SGP/SGP4

EPOCH          = 2026-02-05T22:00:03.000096
MEAN_MOTION    = 15.83323464
ECCENTRICITY   = .00015999
INCLINATION    = 97.2796
RA_OF_ASC_NODE = 95.7438
ARG_OF_PERICENTER = 62.1230
MEAN_ANOMALY   = 10.9979

EPHEMERIS_TYPE = 0
CLASSIFICATION_TYPE = U
NORAD_CAT_ID   = 67571
ELEMENT_SET_NO = 999
REV_AT_EPOCH   = 292
BSTAR          = -.95883485E-2
MEAN_MOTION_DOT = -.1778662E-1
MEAN_MOTION_DDOT = 0

