STARLINK-36426          
1 67560U 26014AA  26036.91670139 -.00070942  00000+0 -37324-3 0  9995
2 67560  97.2748 280.2573 0001415 106.4583 135.7924 15.80780571  2429
STARLINK-36621          
1 67561U 26016A   26036.91670139  .00076060  00000+0  39507-3 0  9998
2 67561  97.2800  95.7157 0001426  66.2367 298.4812 15.80776881  2940
STARLINK-36398          
1 67562U 26016B   26036.91670139  .00039886  00000+0  20827-3 0  9999
2 67562  97.2801  95.7188 0001451  73.5961 297.8932 15.80789585  2924
STARLINK-36403          
1 67563U 26016C   26036.91670139 -.00038992  00000+0 -20350-3 0  9990
2 67563  97.2807  95.7219 0001227  92.4250 284.9386 15.80841713  3044
STARLINK-36593          
1 67564U 26016D   26036.91670139 -.00358791  00000+0 -19301-2 0  9996
2 67564  97.2805  95.7242 0001178  75.7053 308.5234 15.81043787  2881
STARLINK-35725          
1 67565U 26016E   26036.91670139 -.00621546  00000+0 -34134-2 0  9999
2 67565  97.2802  95.7262 0001541  89.8641 299.4679 15.81240180  2937
STARLINK-36394          
1 67566U 26016F   26036.91670139 -.01734829  00000+0 -97199-2 0  9990
2 67566  97.2798  95.7344 0001698  58.3784 352.3870 15.82419712  3040
STARLINK-36352          
1 67567U 26016G   26036.91670139 -.01508136  00000+0 -84196-2 0  9994
2 67567  97.2797  95.7316 0001297  68.2759 336.0860 15.82062251  2944
STARLINK-36435          
1 67568U 26016H   26036.91670139 -.01767023  00000+0 -98207-2 0  9995
2 67568  97.2800  95.7370 0001630  64.7475 351.6931 15.82656070  2947
STARLINK-36575          
1 67569U 26016J   26036.91670139 -.01827319  00000+0 -98333-2 0  9991
2 67569  97.2798  95.7403 0001810  72.4287 350.4343 15.82922448  2947
STARLINK-36562          
1 67570U 26016K   26036.91670139 -.01787536  00000+0 -97395-2 0  9996
2 67570  97.2794  95.7415 0001764  71.0907 356.5755 15.83114349  2948
STARLINK-36578          
1 67571U 26016L   26036.91670139 -.01778662  00000+0 -95883-2 0  9997
2 67571  97.2796  95.7438 0001599  62.1230  10.9979 15.83323464  2929
